{"generatedAt":"2026-03-28T15:08:58.243601Z","satellites":[{"name":"ONEWEB-0605","tle1":"1 54669U 22166AD  26087.21837243  .00003231  00000+0  77909-2 0  9992","tle2":"2 54669  87.9170 260.1240 0001286 120.1196 240.0066 13.21809449160811"},{"name":"ONEWEB-0606","tle1":"1 54670U 22166AE  26087.23974650 -.00000083  00000+0 -23357-3 0  9993","tle2":"2 54670  87.9172 260.1326 0001744  89.9686 270.1648 13.21823195160875"},{"name":"ONEWEB-0607","tle1":"1 54671U 22166AF  26086.75266106  .00000087  00000+0  17825-3 0  9995","tle2":"2 54671  87.9178 260.1955 0001634 100.6261 259.5057 13.21828105160789"},{"name":"ONEWEB-0608","tle1":"1 54672U 22166AG  26087.21342989  .00000053  00000+0  97263-4 0  9990","tle2":"2 54672  87.9182 260.0976 0001275 107.7149 252.4125 13.21825704160859"},{"name":"ONEWEB-0610","tle1":"1 54673U 22166AH  26087.19368340  .00000035  00000+0  52928-4 0  9996","tle2":"2 54673  87.9172 260.1243 0001337 116.8466 243.2805 13.21824867160750"},{"name":"ONEWEB-0611","tle1":"1 54674U 22166AJ  26087.18710807  .00000081  00000+0  16531-3 0  9995","tle2":"2 54674  87.9169 260.1222 0001854  93.4021 266.7326 13.21825568160741"},{"name":"ONEWEB-0612","tle1":"1 54675U 22166AK  26087.20025190 -.00000187  00000+0 -48360-3 0  9997","tle2":"2 54675  87.9183 260.1056 0001626 100.4390 259.6927 13.21825774160734"},{"name":"ONEWEB-0615","tle1":"1 54676U 22166AL  26087.18050630 -.00000216  00000+0 -55415-3 0  9994","tle2":"2 54676  87.9173 260.1319 0001713  97.2287 262.9042 13.21825569160749"},{"name":"ONEWEB-0655","tle1":"1 54677U 22166AM  26087.23152945  .00000047  00000+0  83366-4 0  9990","tle2":"2 54677  87.9171 260.1235 0001756 105.0566 255.0762 13.21825485160749"},{"name":"ONEWEB-0659","tle1":"1 54678U 22166AN  26087.17227851  .00000083  00000+0  16958-3 0  9995","tle2":"2 54678  87.9169 260.1357 0001667  93.2804 266.8521 13.21824415160820"},{"name":"ONEWEB-0685","tle1":"1 54679U 22166AP  26086.87008064  .00000003  00000+0 -24876-4 0  9997","tle2":"2 54679  87.9167 260.1907 0001642 102.3693 257.7625 13.21813837160674"},{"name":"ONEWEB-0712","tle1":"1 54680U 22166AQ  26086.97125779  .00000023  00000+0  27121-4 0  9990","tle2":"2 54680  87.9035 244.9166 0002080 110.6446 249.4908 13.16595309161377"},{"name":"ONEWEB-0714","tle1":"1 54681U 22166AR  26087.17887628  .00000016  00000+0  71910-5 0  9990","tle2":"2 54681  87.9170 260.1246 0001707 102.8514 257.2810 13.21825884160830"},{"name":"ONEWEB-0532","tle1":"1 55140U 23004A   26087.23726730  .00000021  00000+0  21362-4 0  9997","tle2":"2 55140  87.9182  21.9395 0001615  68.7219 291.4085 13.17649480156922"},{"name":"ONEWEB-0533","tle1":"1 55141U 23004B   26087.18858441 -.00000379  00000+0 -10877-2 0  9992","tle2":"2 55141  87.9020   6.7490 0001645  83.0559 277.0756 13.12444629157436"},{"name":"ONEWEB-0541","tle1":"1 55142U 23004C   26087.23143782  .00000676  00000+0  18725-2 0  9992","tle2":"2 55142  87.8903  37.1439 0001953  75.1942 284.9402 13.11416226155330"},{"name":"ONEWEB-0543","tle1":"1 55143U 23004D   26087.12772694  .00000037  00000+0  60489-4 0  9998","tle2":"2 55143  87.9231 351.5848 0001956  85.8076 274.3280 13.18687605159016"},{"name":"ONEWEB-0544","tle1":"1 55144U 23004E   26087.27288038  .00000051  00000+0  97121-4 0  9998","tle2":"2 55144  87.9236 351.5546 0002001  76.7213 283.4142 13.18687825159035"},{"name":"ONEWEB-0560","tle1":"1 55145U 23004F   26087.19040580  .00000005  00000+0 -18969-4 0  9991","tle2":"2 55145  87.9233 351.5604 0002004  78.0622 282.0734 13.18687934159033"},{"name":"ONEWEB-0565","tle1":"1 55146U 23004G   26087.18380382 -.00000016  00000+0 -73928-4 0  9997","tle2":"2 55146  87.9224 351.5976 0002027  68.3582 291.7766 13.18687087159028"},{"name":"ONEWEB-0567","tle1":"1 55147U 23004H   26087.10133566 -.00000058  00000+0 -18044-3 0  9993","tle2":"2 55147  87.9237 351.5903 0002084  71.5752 288.5607 13.18686704159013"},{"name":"ONEWEB-0569","tle1":"1 55148U 23004J   26087.18368378 -.00000172  00000+0 -50678-3 0  9999","tle2":"2 55148  87.9024 336.3377 0002683  77.4182 282.7247 13.13472512159540"},{"name":"ONEWEB-0570","tle1":"1 55149U 23004K   26087.24318999  .00000048  00000+0  89932-4 0  9997","tle2":"2 55149  87.9236 351.5599 0001596  62.9439 297.1856 13.18686962159027"},{"name":"ONEWEB-0571","tle1":"1 55150U 23004L   26087.16071711  .00000057  00000+0  11265-3 0  9991","tle2":"2 55150  87.9237 351.5753 0002800  60.8300 299.3112 13.18686483159022"},{"name":"ONEWEB-0572","tle1":"1 55151U 23004M   26087.19170350  .00000054  00000+0  10635-3 0  9991","tle2":"2 55151  87.9174  21.9506 0001986  73.2327 286.9022 13.17649068156811"},{"name":"ONEWEB-0573","tle1":"1 55152U 23004N   26087.22999257  .00000045  00000+0  81560-4 0  9997","tle2":"2 55152  87.9235 351.5634 0002116  57.0006 303.1329 13.18687459159029"},{"name":"ONEWEB-0588","tle1":"1 55153U 23004P   26087.22339528  .00000089  00000+0  19423-3 0  9993","tle2":"2 55153  87.9235 351.5653 0001677  64.3776 295.7529 13.18685703159025"},{"name":"ONEWEB-0598","tle1":"1 55154U 23004Q   26087.13309427 -.00000090  00000+0 -29102-3 0  9998","tle2":"2 55154  87.8896  37.1825 0002485  75.0858 285.0545 13.11419016155272"},{"name":"ONEWEB-0599","tle1":"1 55155U 23004R   26087.22883019  .00000022  00000+0  22517-4 0  9990","tle2":"2 55155  87.9172  21.9413 0002030  82.2030 277.9332 13.17649685156822"},{"name":"ONEWEB-0614","tle1":"1 55156U 23004S   26086.89910041 -.00000400  00000+0 -11635-2 0  9998","tle2":"2 55156  87.8893  37.2370 0001686  78.1597 281.9720 13.11421495155187"},{"name":"ONEWEB-0616","tle1":"1 55157U 23004T   26087.19508117  .00000029  00000+0  40278-4 0  9992","tle2":"2 55157  87.9181  21.9505 0002492  98.6380 261.5034 13.17650234157031"},{"name":"ONEWEB-0617","tle1":"1 55158U 23004U   26087.11612955 -.00000589  00000+0 -16982-2 0  9997","tle2":"2 55158  87.8905  37.1791 0001555  69.8063 290.3232 13.11415993155233"},{"name":"ONEWEB-0618","tle1":"1 55159U 23004V   26087.09265760  .00008047  00000+0  46288-3 0  9991","tle2":"2 55159  86.9097 210.5142 0011099 225.7533 134.2796 15.12273425170000"},{"name":"ONEWEB-0619","tle1":"1 55160U 23004W   26087.22713483  .00000060  00000+0  12250-3 0  9997","tle2":"2 55160  87.9186  21.9179 0001524  89.6384 270.4922 13.17651239156935"},{"name":"ONEWEB-0620","tle1":"1 55161U 23004X   26087.11104825 -.00000475  00000+0 -13765-2 0  9993","tle2":"2 55161  87.8892  37.1944 0002007  72.1670 287.9677 13.11416511155205"},{"name":"ONEWEB-0621","tle1":"1 55162U 23004Y   26087.21445939 -.00000082  00000+0 -26574-3 0  9996","tle2":"2 55162  87.8905  37.1553 0001645  80.3619 279.7694 13.11418713155190"},{"name":"ONEWEB-0622","tle1":"1 55163U 23004Z   26087.14326615  .00000346  00000+0  93943-3 0  9993","tle2":"2 55163  87.8903  37.1716 0001571  56.8166 303.3113 13.11417654155174"},{"name":"ONEWEB-0623","tle1":"1 55164U 23004AA  26087.22207150  .00000046  00000+0  84060-4 0  9993","tle2":"2 55164  87.9177  21.9589 0001117  71.0631 289.0621 13.17651034156926"},{"name":"ONEWEB-0624","tle1":"1 55165U 23004AB  26087.18462981 -.00000365  00000+0 -10422-2 0  9999","tle2":"2 55165  87.9012   6.6823 0001583  78.1300 282.0006 13.12924602157441"},{"name":"ONEWEB-0625","tle1":"1 55166U 23004AC  26087.21194651  .00000047  00000+0  87354-4 0  9995","tle2":"2 55166  87.9177  21.9549 0001937  84.7284 275.4069 13.17651072156915"},{"name":"ONEWEB-0626","tle1":"1 55167U 23004AD  26087.27776995  .00000092  00000+0  20341-3 0  9991","tle2":"2 55167  87.9175  21.9419 0002227  71.6416 288.4958 13.17648893156924"},{"name":"ONEWEB-0627","tle1":"1 55168U 23004AE  26087.19000186  .00000026  00000+0  33480-4 0  9991","tle2":"2 55168  87.9175  21.9594 0001330  74.3422 285.7857 13.17651238156914"},{"name":"ONEWEB-0628","tle1":"1 55169U 23004AF  26087.13621080  .00000246  00000+0  64935-3 0  9990","tle2":"2 55169  87.9015   6.7445 0001056  78.4732 281.6515 13.12444798157405"},{"name":"ONEWEB-0629","tle1":"1 55170U 23004AG  26087.24148154  .00000059  00000+0  11824-3 0  9991","tle2":"2 55170  87.9174  21.9458 0001656  87.7809 272.3512 13.17649142156925"},{"name":"ONEWEB-0631","tle1":"1 55171U 23004AH  26087.21678562  .00000107  00000+0  23812-3 0  9994","tle2":"2 55171  87.9246 351.5246 0001966  64.5044 295.6292 13.18687979159007"},{"name":"ONEWEB-0709","tle1":"1 55172U 23004AJ  26087.25348155 -.00000017  00000+0 -83137-4 0  9990","tle2":"2 55172  87.8887  37.1696 0002688  71.3257 288.8163 13.11415111155263"},{"name":"ONEWEB-0710","tle1":"1 55173U 23004AK  26087.25582203  .00000060  00000+0  12117-3 0  9990","tle2":"2 55173  87.9174  21.9383 0001734  75.3927 284.7397 13.17649372156929"},{"name":"ONEWEB-0711","tle1":"1 55174U 23004AL  26087.22466082  .00010575  00000+0  29790-1 0  9999","tle2":"2 55174  87.8906  37.1590 0001247  85.9806 274.1465 13.11368617155228"},{"name":"ONEWEB-0713","tle1":"1 55175U 23004AM  26087.24330445  .00000294  00000+0  79340-3 0  9990","tle2":"2 55175  87.8899  37.1548 0001513  71.6343 288.4949 13.11415255155212"},{"name":"ONEWEB-0715","tle1":"1 55176U 23004AN  26087.08562569  .00000415  00000+0  11338-2 0  9994","tle2":"2 55176  87.8900  37.1859 0002312  64.6251 295.5116 13.11415995155237"},{"name":"ONEWEB-0716","tle1":"1 55177U 23004AP  26087.24908285  .00000027  00000+0  35609-4 0  9990","tle2":"2 55177  87.9178  21.9403 0001996  85.4440 274.6920 13.17650476156929"},{"name":"ONEWEB-0717","tle1":"1 55178U 23004AQ  26087.23220268  .00000047  00000+0  87064-4 0  9992","tle2":"2 55178  87.9184  21.9247 0001409  59.9042 300.2229 13.17650032156977"},{"name":"ONEWEB-0719","tle1":"1 55179U 23004AR  26087.24232654  .00000098  00000+0  21866-3 0  9999","tle2":"2 55179  87.9185  21.9040 0001817  84.9835 275.1504 13.17649192156927"},{"name":"ONEWEB-0530","tle1":"1 55796U 23029A   26087.10644782  .00000057  00000+0  10856-3 0  9997","tle2":"2 55796  87.9136 290.6668 0001179  90.4426 269.6843 13.20771498150442"}]}